{
  "type": "FeatureCollection",
  "name": "hop1_sift_inliers",
  "comment": "Local planar approximation about anchor (-89.72070, 223.12570). Lunar radius 1737400 m. Valid only within this crop. Not geodetic coordinates.",
  "features": [
    {
      "type": "Feature",
      "geometry": {
        "type": "Point",
        "coordinates": [
          225.9847384,
          -89.7352005
        ]
      },
      "properties": {
        "match_id": 63,
        "src_x": 755.89,
        "src_y": 889.99,
        "ref_x": 914.33,
        "ref_y": 931.08,
        "residual_px": 9.1897,
        "confidence": 0.3874
      }
    },
    {
      "type": "Feature",
      "geometry": {
        "type": "Point",
        "coordinates": [
          225.5827473,
          -89.7332421
        ]
      },
      "properties": {
        "match_id": 71,
        "src_x": 586.28,
        "src_y": 445.79,
        "ref_x": 856.07,
        "ref_y": 872.86,
        "residual_px": 2.6845,
        "confidence": 0.821
      }
    },
    {
      "type": "Feature",
      "geometry": {
        "type": "Point",
        "coordinates": [
          225.7900989,
          -89.7354619
        ]
      },
      "properties": {
        "match_id": 135,
        "src_x": 584.78,
        "src_y": 910.95,
        "ref_x": 886.12,
        "ref_y": 938.85,
        "residual_px": 0.7513,
        "confidence": 0.9499
      }
    },
    {
      "type": "Feature",
      "geometry": {
        "type": "Point",
        "coordinates": [
          225.5889262,
          -89.7345267
        ]
      },
      "properties": {
        "match_id": 187,
        "src_x": 491.46,
        "src_y": 679.0,
        "ref_x": 856.97,
        "ref_y": 911.05,
        "residual_px": 2.3649,
        "confidence": 0.8423
      }
    },
    {
      "type": "Feature",
      "geometry": {
        "type": "Point",
        "coordinates": [
          224.9089067,
          -89.7324483
        ]
      },
      "properties": {
        "match_id": 275,
        "src_x": 36.71,
        "src_y": 16.93,
        "ref_x": 758.42,
        "ref_y": 849.26,
        "residual_px": 3.5625,
        "confidence": 0.7625
      }
    },
    {
      "type": "Feature",
      "geometry": {
        "type": "Point",
        "coordinates": [
          225.820429,
          -89.732277
        ]
      },
      "properties": {
        "match_id": 317,
        "src_x": 933.06,
        "src_y": 369.85,
        "ref_x": 890.52,
        "ref_y": 844.17,
        "residual_px": 8.5335,
        "confidence": 0.4311
      }
    }
  ]
}