{
  "type": "FeatureCollection",
  "name": "hop2_sift_inliers",
  "comment": "Local planar approximation about anchor (-70.85000, 32.26000). Lunar radius 1737400 m. Valid only within this crop. Not geodetic coordinates.",
  "features": [
    {
      "type": "Feature",
      "geometry": {
        "type": "Point",
        "coordinates": [
          31.2279065,
          -71.1434582
        ]
      },
      "properties": {
        "match_id": 61,
        "src_x": 546.15,
        "src_y": 404.76,
        "ref_x": 249.86,
        "ref_y": 530.14,
        "residual_px": 6.515,
        "confidence": 0.5657
      }
    },
    {
      "type": "Feature",
      "geometry": {
        "type": "Point",
        "coordinates": [
          30.7266945,
          -70.6492074
        ]
      },
      "properties": {
        "match_id": 72,
        "src_x": 21.33,
        "src_y": 328.14,
        "ref_x": 176.95,
        "ref_y": 310.96,
        "residual_px": 4.0415,
        "confidence": 0.7306
      }
    },
    {
      "type": "Feature",
      "geometry": {
        "type": "Point",
        "coordinates": [
          30.3123341,
          -71.0579419
        ]
      },
      "properties": {
        "match_id": 157,
        "src_x": 344.02,
        "src_y": 644.01,
        "ref_x": 116.67,
        "ref_y": 492.21,
        "residual_px": 3.0168,
        "confidence": 0.7989
      }
    },
    {
      "type": "Feature",
      "geometry": {
        "type": "Point",
        "coordinates": [
          30.0735264,
          -70.8449525
        ]
      },
      "properties": {
        "match_id": 161,
        "src_x": 90.6,
        "src_y": 613.27,
        "ref_x": 81.93,
        "ref_y": 397.76,
        "residual_px": 4.3299,
        "confidence": 0.7113
      }
    },
    {
      "type": "Feature",
      "geometry": {
        "type": "Point",
        "coordinates": [
          31.7959261,
          -71.1323901
        ]
      },
      "properties": {
        "match_id": 223,
        "src_x": 634.38,
        "src_y": 199.53,
        "ref_x": 332.49,
        "ref_y": 525.23,
        "residual_px": 5.3982,
        "confidence": 0.6401
      }
    },
    {
      "type": "Feature",
      "geometry": {
        "type": "Point",
        "coordinates": [
          30.6328073,
          -70.8459327
        ]
      },
      "properties": {
        "match_id": 228,
        "src_x": 190.41,
        "src_y": 438.04,
        "ref_x": 163.29,
        "ref_y": 398.2,
        "residual_px": 2.824,
        "confidence": 0.8117
      }
    }
  ]
}