{"type": "FeatureCollection", "comment": "Stage P inliers, lon/lat on Moon sphere R=1737400 m. Reference lola_rms 1.85 m; not ground truth.", "features": [{"type": "Feature", "geometry": {"type": "Point", "coordinates": [32.00521293, -69.91686504]}, "properties": {"id": 0, "src_line": 131432.0, "src_sample": 1328.0, "fit_residual_px": 0.4874, "heldout_residual_px": 1.3544}}, {"type": "Feature", "geometry": {"type": "Point", "coordinates": [31.95969157, -69.90933046]}, "properties": {"id": 1, "src_line": 131480.0, "src_sample": 1424.0, "fit_residual_px": 0.0595, "heldout_residual_px": 0.8369}}, {"type": "Feature", "geometry": {"type": "Point", "coordinates": [32.19786703, -69.82717331]}, "properties": {"id": 2, "src_line": 131960.0, "src_sample": 896.0, "fit_residual_px": 0.3123, "heldout_residual_px": 0.0686}}, {"type": "Feature", "geometry": {"type": "Point", "coordinates": [31.66399532, -69.83231872]}, "properties": {"id": 3, "src_line": 131960.0, "src_sample": 2048.0, "fit_residual_px": 0.1387, "heldout_residual_px": 2.1274}}, {"type": "Feature", "geometry": {"type": "Point", "coordinates": [31.66344144, -69.82437201]}, "properties": {"id": 4, "src_line": 132008.0, "src_sample": 2048.0, "fit_residual_px": 0.0697, "heldout_residual_px": 2.041}}, {"type": "Feature", "geometry": {"type": "Point", "coordinates": [31.9497868, -69.78993075]}, "properties": {"id": 5, "src_line": 132200.0, "src_sample": 1424.0, "fit_residual_px": 0.9637, "heldout_residual_px": 0.6689}}, {"type": "Feature", "geometry": {"type": "Point", "coordinates": [32.39523418, -69.58566222]}, "properties": {"id": 8, "src_line": 133400.0, "src_sample": 416.0, "fit_residual_px": 0.536, "heldout_residual_px": 0.9581}}, {"type": "Feature", "geometry": {"type": "Point", "coordinates": [32.26206078, -69.57133088]}, "properties": {"id": 9, "src_line": 133496.0, "src_sample": 704.0, "fit_residual_px": 0.4223, "heldout_residual_px": 0.386}}, {"type": "Feature", "geometry": {"type": "Point", "coordinates": [32.04199241, -69.56585564]}, "properties": {"id": 10, "src_line": 133544.0, "src_sample": 1184.0, "fit_residual_px": 0.2329, "heldout_residual_px": 0.5153}}, {"type": "Feature", "geometry": {"type": "Point", "coordinates": [32.04145658, -69.5579016]}, "properties": {"id": 11, "src_line": 133592.0, "src_sample": 1184.0, "fit_residual_px": 0.5863, "heldout_residual_px": 0.8608}}, {"type": "Feature", "geometry": {"type": "Point", "coordinates": [32.01794074, -69.54214125]}, "properties": {"id": 12, "src_line": 133688.0, "src_sample": 1232.0, "fit_residual_px": 0.4151, "heldout_residual_px": 0.65}}, {"type": "Feature", "geometry": {"type": "Point", "coordinates": [32.27946298, -69.52333598]}, "properties": {"id": 13, "src_line": 133784.0, "src_sample": 656.0, "fit_residual_px": 0.2041, "heldout_residual_px": 0.2019}}, {"type": "Feature", "geometry": {"type": "Point", "coordinates": [32.21380807, -69.52410914]}, "properties": {"id": 14, "src_line": 133784.0, "src_sample": 800.0, "fit_residual_px": 0.0806, "heldout_residual_px": 0.2234}}, {"type": "Feature", "geometry": {"type": "Point", "coordinates": [32.27896383, -69.51540133]}, "properties": {"id": 15, "src_line": 133832.0, "src_sample": 656.0, "fit_residual_px": 0.4507, "heldout_residual_px": 0.6015}}, {"type": "Feature", "geometry": {"type": "Point", "coordinates": [32.19091041, -69.51637695]}, "properties": {"id": 16, "src_line": 133832.0, "src_sample": 848.0, "fit_residual_px": 0.6089, "heldout_residual_px": 0.5181}}, {"type": "Feature", "geometry": {"type": "Point", "coordinates": [32.27820452, -69.50742421]}, "properties": {"id": 17, "src_line": 133880.0, "src_sample": 656.0, "fit_residual_px": 0.4309, "heldout_residual_px": 0.6013}}, {"type": "Feature", "geometry": {"type": "Point", "coordinates": [32.25608742, -69.50769298]}, "properties": {"id": 18, "src_line": 133880.0, "src_sample": 704.0, "fit_residual_px": 0.0792, "heldout_residual_px": 0.1668}}, {"type": "Feature", "geometry": {"type": "Point", "coordinates": [32.2342799, -69.50794048]}, "properties": {"id": 19, "src_line": 133880.0, "src_sample": 752.0, "fit_residual_px": 0.118, "heldout_residual_px": 0.3506}}, {"type": "Feature", "geometry": {"type": "Point", "coordinates": [32.18673008, -69.46864868]}, "properties": {"id": 20, "src_line": 134120.0, "src_sample": 848.0, "fit_residual_px": 0.2181, "heldout_residual_px": 0.2934}}, {"type": "Feature", "geometry": {"type": "Point", "coordinates": [32.09820858, -69.46168558]}, "properties": {"id": 21, "src_line": 134168.0, "src_sample": 1040.0, "fit_residual_px": 0.9469, "heldout_residual_px": 1.1375}}, {"type": "Feature", "geometry": {"type": "Point", "coordinates": [32.2726067, -69.45168794]}, "properties": {"id": 22, "src_line": 134216.0, "src_sample": 656.0, "fit_residual_px": 0.4049, "heldout_residual_px": 0.4503}}, {"type": "Feature", "geometry": {"type": "Point", "coordinates": [32.16127325, -69.42908827]}, "properties": {"id": 24, "src_line": 134360.0, "src_sample": 896.0, "fit_residual_px": 0.1381, "heldout_residual_px": 0.2107}}, {"type": "Feature", "geometry": {"type": "Point", "coordinates": [32.11721217, -69.42166892]}, "properties": {"id": 25, "src_line": 134408.0, "src_sample": 992.0, "fit_residual_px": 0.6564, "heldout_residual_px": 0.5726}}, {"type": "Feature", "geometry": {"type": "Point", "coordinates": [32.09526924, -69.42192841]}, "properties": {"id": 26, "src_line": 134408.0, "src_sample": 1040.0, "fit_residual_px": 0.5096, "heldout_residual_px": 0.528}}, {"type": "Feature", "geometry": {"type": "Point", "coordinates": [31.98586693, -69.42305448]}, "properties": {"id": 27, "src_line": 134408.0, "src_sample": 1280.0, "fit_residual_px": 0.0921, "heldout_residual_px": 0.5963}}, {"type": "Feature", "geometry": {"type": "Point", "coordinates": [32.18119975, -69.40501479]}, "properties": {"id": 28, "src_line": 134504.0, "src_sample": 848.0, "fit_residual_px": 0.6257, "heldout_residual_px": 0.626}}, {"type": "Feature", "geometry": {"type": "Point", "coordinates": [32.37478587, -69.37880095]}, "properties": {"id": 29, "src_line": 134648.0, "src_sample": 416.0, "fit_residual_px": 0.5714, "heldout_residual_px": 0.8122}}, {"type": "Feature", "geometry": {"type": "Point", "coordinates": [32.46079984, -69.36970889]}, "properties": {"id": 30, "src_line": 134696.0, "src_sample": 224.0, "fit_residual_px": 0.188, "heldout_residual_px": 0.7508}}, {"type": "Feature", "geometry": {"type": "Point", "coordinates": [32.10767074, -69.31820355]}, "properties": {"id": 31, "src_line": 135032.0, "src_sample": 992.0, "fit_residual_px": 0.3215, "heldout_residual_px": 0.419}}, {"type": "Feature", "geometry": {"type": "Point", "coordinates": [32.32248378, -69.29178011]}, "properties": {"id": 32, "src_line": 135176.0, "src_sample": 512.0, "fit_residual_px": 0.2422, "heldout_residual_px": 0.258}}, {"type": "Feature", "geometry": {"type": "Point", "coordinates": [32.24824238, -69.205008]}, "properties": {"id": 33, "src_line": 135704.0, "src_sample": 656.0, "fit_residual_px": 1.0445, "heldout_residual_px": 1.2186}}, {"type": "Feature", "geometry": {"type": "Point", "coordinates": [32.42504774, -69.03546553]}, "properties": {"id": 34, "src_line": 136712.0, "src_sample": 224.0, "fit_residual_px": 0.5245, "heldout_residual_px": 0.7048}}, {"type": "Feature", "geometry": {"type": "Point", "coordinates": [32.46742873, -69.02688823]}, "properties": {"id": 35, "src_line": 136760.0, "src_sample": 128.0, "fit_residual_px": 0.356, "heldout_residual_px": 1.6902}}, {"type": "Feature", "geometry": {"type": "Point", "coordinates": [32.42440176, -69.02747848]}, "properties": {"id": 36, "src_line": 136760.0, "src_sample": 224.0, "fit_residual_px": 0.0778, "heldout_residual_px": 1.2433}}, {"type": "Feature", "geometry": {"type": "Point", "coordinates": [32.4665331, -69.01897804]}, "properties": {"id": 37, "src_line": 136808.0, "src_sample": 128.0, "fit_residual_px": 0.3444, "heldout_residual_px": 1.6892}}]}