{
  "type": "FeatureCollection",
  "features": [
    {
      "type": "Feature",
      "geometry": {
        "type": "Point",
        "coordinates": [
          31.304884869109607,
          -50.795926850263385
        ]
      },
      "properties": {
        "node_idx": 9,
        "row_idx": 0,
        "grid_x": 872,
        "grid_y": 288,
        "dx_sub_px": -27.64621591254265,
        "dy_sub_px": 15.707235089997384,
        "dx_m": -130.49013910720132,
        "dy_m": 74.13814962478764,
        "dx_ref_px": -65.24506955360066,
        "dy_ref_px": 37.06907481239382,
        "peak_ncc": 0.8348312973976135,
        "second_peak": 0.6717561483383179
      }
    },
    {
      "type": "Feature",
      "geometry": {
        "type": "Point",
        "coordinates": [
          31.19358221418108,
          -50.86970761553852
        ]
      },
      "properties": {
        "node_idx": 1,
        "row_idx": 6,
        "grid_x": 422,
        "grid_y": 762,
        "dx_sub_px": -21.925341282324304,
        "dy_sub_px": 17.19433568769935,
        "dx_m": -103.48761085257071,
        "dy_m": 81.15726444594092,
        "dx_ref_px": -51.743805426285356,
        "dy_ref_px": 40.57863222297046,
        "peak_ncc": 0.5697079300880432,
        "second_peak": 0.41475096344947815
      }
    },
    {
      "type": "Feature",
      "geometry": {
        "type": "Point",
        "coordinates": [
          31.177752503257906,
          -50.89445685958651
        ]
      },
      "properties": {
        "node_idx": 0,
        "row_idx": 8,
        "grid_x": 358,
        "grid_y": 921,
        "dx_sub_px": -20.40569892875871,
        "dy_sub_px": 17.136442924487014,
        "dx_m": -96.31489894374111,
        "dy_m": 80.8840106035787,
        "dx_ref_px": -48.15744947187056,
        "dy_ref_px": 40.44200530178935,
        "peak_ncc": 0.5689260363578796,
        "second_peak": 0.49044269323349
      }
    },
    {
      "type": "Feature",
      "geometry": {
        "type": "Point",
        "coordinates": [
          31.27198875109739,
          -51.06692328980772
        ]
      },
      "properties": {
        "node_idx": 8,
        "row_idx": 22,
        "grid_x": 739,
        "grid_y": 2029,
        "dx_sub_px": -13.333453113187295,
        "dy_sub_px": 9.020250388029007,
        "dx_m": -62.93389869424403,
        "dy_m": 42.57558183149691,
        "dx_ref_px": -31.466949347122014,
        "dy_ref_px": 21.287790915748456,
        "peak_ncc": 0.6528337597846985,
        "second_peak": 0.4283832609653473
      }
    },
    {
      "type": "Feature",
      "geometry": {
        "type": "Point",
        "coordinates": [
          31.232909152255818,
          -51.202343681768426
        ]
      },
      "properties": {
        "node_idx": 6,
        "row_idx": 33,
        "grid_x": 581,
        "grid_y": 2899,
        "dx_sub_px": -6.503267420907479,
        "dy_sub_px": 6.4380812912147745,
        "dx_m": -30.6954222266833,
        "dy_m": 30.387743694533732,
        "dx_ref_px": -15.34771111334165,
        "dy_ref_px": 15.193871847266866,
        "peak_ncc": 0.5030337572097778,
        "second_peak": 0.4279364049434662
      }
    },
    {
      "type": "Feature",
      "geometry": {
        "type": "Point",
        "coordinates": [
          31.223510261395187,
          -51.30087369109156
        ]
      },
      "properties": {
        "node_idx": 6,
        "row_idx": 41,
        "grid_x": 543,
        "grid_y": 3532,
        "dx_sub_px": -0.3481660492595977,
        "dy_sub_px": 5.189513335912193,
        "dx_m": -1.6433437525053012,
        "dy_m": 24.49450294550555,
        "dx_ref_px": -0.8216718762526506,
        "dy_ref_px": 12.247251472752774,
        "peak_ncc": 0.5692598819732666,
        "second_peak": 0.4763111472129822
      }
    },
    {
      "type": "Feature",
      "geometry": {
        "type": "Point",
        "coordinates": [
          31.237113919219794,
          -51.448746532887725
        ]
      },
      "properties": {
        "node_idx": 8,
        "row_idx": 53,
        "grid_x": 598,
        "grid_y": 4482,
        "dx_sub_px": 5.870585686330612,
        "dy_sub_px": -1.3579915219199967,
        "dx_m": 27.70916443948049,
        "dy_m": -6.409719983462384,
        "dx_ref_px": 13.854582219740244,
        "dy_ref_px": -3.204859991731192,
        "peak_ncc": 0.5191190838813782,
        "second_peak": 0.4590907692909241
      }
    },
    {
      "type": "Feature",
      "geometry": {
        "type": "Point",
        "coordinates": [
          31.247996845479477,
          -51.48579257114823
        ]
      },
      "properties": {
        "node_idx": 9,
        "row_idx": 56,
        "grid_x": 642,
        "grid_y": 4720,
        "dx_sub_px": 10.125568349718526,
        "dy_sub_px": -3.609983804452999,
        "dx_m": 47.79268261067144,
        "dy_m": -17.039123557018154,
        "dx_ref_px": 23.89634130533572,
        "dy_ref_px": -8.519561778509077,
        "peak_ncc": 0.8834360241889954,
        "second_peak": 0.702041506767273
      }
    },
    {
      "type": "Feature",
      "geometry": {
        "type": "Point",
        "coordinates": [
          31.214111370534557,
          -51.57202578625884
        ]
      },
      "properties": {
        "node_idx": 7,
        "row_idx": 63,
        "grid_x": 505,
        "grid_y": 5274,
        "dx_sub_px": 12.491362209407372,
        "dy_sub_px": -5.2994980265194265,
        "dx_m": 58.959229628402795,
        "dy_m": -25.01363068517169,
        "dx_ref_px": 29.479614814201398,
        "dy_ref_px": -12.506815342585845,
        "peak_ncc": 0.46419504284858704,
        "second_peak": 0.3803095519542694
      }
    },
    {
      "type": "Feature",
      "geometry": {
        "type": "Point",
        "coordinates": [
          31.239587311551524,
          -51.584322580471365
        ]
      },
      "properties": {
        "node_idx": 9,
        "row_idx": 64,
        "grid_x": 608,
        "grid_y": 5353,
        "dx_sub_px": 12.967082756795705,
        "dy_sub_px": -4.1047320306356845,
        "dx_m": 61.204630612075725,
        "dy_m": -19.37433518460043,
        "dx_ref_px": 30.602315306037863,
        "dy_ref_px": -9.687167592300215,
        "peak_ncc": 0.4776105582714081,
        "second_peak": 0.4003486633300781
      }
    }
  ]
}